[{"OBJECT_NAME":"SCD 1","OBJECT_ID":"1993-009B","EPOCH":"2026-04-01T00:36:58.102272","MEAN_MOTION":14.46082841,"ECCENTRICITY":0.0042028,"INCLINATION":24.9705,"RA_OF_ASC_NODE":323.9917,"ARG_OF_PERICENTER":41.6065,"MEAN_ANOMALY":99.7226,"EPHEMERIS_TYPE":0,"CLASSIFICATION_TYPE":"U","NORAD_CAT_ID":22490,"ELEMENT_SET_NO":999,"REV_AT_EPOCH":74993,"BSTAR":0.00012374,"MEAN_MOTION_DOT":6.38e-6,"MEAN_MOTION_DDOT":0},{"OBJECT_NAME":"TECHSAT 1B (GO-32)","OBJECT_ID":"1998-043D","EPOCH":"2026-04-01T10:17:34.596096","MEAN_MOTION":14.24412226,"ECCENTRICITY":0.0002338,"INCLINATION":99.005,"RA_OF_ASC_NODE":82.2624,"ARG_OF_PERICENTER":83.006,"MEAN_ANOMALY":277.1384,"EPHEMERIS_TYPE":0,"CLASSIFICATION_TYPE":"U","NORAD_CAT_ID":25397,"ELEMENT_SET_NO":999,"REV_AT_EPOCH":44040,"BSTAR":5.5499e-5,"MEAN_MOTION_DOT":8.2e-7,"MEAN_MOTION_DDOT":0},{"OBJECT_NAME":"SCD 2","OBJECT_ID":"1998-060A","EPOCH":"2026-03-31T23:58:02.357760","MEAN_MOTION":14.45494727,"ECCENTRICITY":0.0016918,"INCLINATION":24.9942,"RA_OF_ASC_NODE":188.1702,"ARG_OF_PERICENTER":28.0909,"MEAN_ANOMALY":132.9763,"EPHEMERIS_TYPE":0,"CLASSIFICATION_TYPE":"U","NORAD_CAT_ID":25504,"ELEMENT_SET_NO":999,"REV_AT_EPOCH":44914,"BSTAR":8.8993e-5,"MEAN_MOTION_DOT":5.01e-6,"MEAN_MOTION_DDOT":0},{"OBJECT_NAME":"DLR-TUBSAT","OBJECT_ID":"1999-029B","EPOCH":"2026-04-01T09:52:12.707616","MEAN_MOTION":14.52405782,"ECCENTRICITY":0.0013415,"INCLINATION":98.6683,"RA_OF_ASC_NODE":84.3979,"ARG_OF_PERICENTER":220.1564,"MEAN_ANOMALY":139.864,"EPHEMERIS_TYPE":0,"CLASSIFICATION_TYPE":"U","NORAD_CAT_ID":25757,"ELEMENT_SET_NO":999,"REV_AT_EPOCH":42210,"BSTAR":4.4732e-5,"MEAN_MOTION_DOT":1.34e-6,"MEAN_MOTION_DDOT":0},{"OBJECT_NAME":"TERRA","OBJECT_ID":"1999-068A","EPOCH":"2026-04-01T10:50:46.158432","MEAN_MOTION":14.61038626,"ECCENTRICITY":0.0003634,"INCLINATION":97.9545,"RA_OF_ASC_NODE":144.0117,"ARG_OF_PERICENTER":104.6473,"MEAN_ANOMALY":313.0502,"EPHEMERIS_TYPE":0,"CLASSIFICATION_TYPE":"U","NORAD_CAT_ID":25994,"ELEMENT_SET_NO":999,"REV_AT_EPOCH":39840,"BSTAR":0.00010511,"MEAN_MOTION_DOT":4.72e-6,"MEAN_MOTION_DDOT":0},{"OBJECT_NAME":"MAROC-TUBSAT","OBJECT_ID":"2001-056D","EPOCH":"2026-04-01T11:21:12.277728","MEAN_MOTION":13.7025914,"ECCENTRICITY":0.0019557,"INCLINATION":99.8038,"RA_OF_ASC_NODE":266.894,"ARG_OF_PERICENTER":341.567,"MEAN_ANOMALY":42.7327,"EPHEMERIS_TYPE":0,"CLASSIFICATION_TYPE":"U","NORAD_CAT_ID":27004,"ELEMENT_SET_NO":999,"REV_AT_EPOCH":21568,"BSTAR":2.6297e-5,"MEAN_MOTION_DOT":-2.4e-7,"MEAN_MOTION_DDOT":0},{"OBJECT_NAME":"AQUA","OBJECT_ID":"2002-022A","EPOCH":"2026-04-01T11:27:31.221216","MEAN_MOTION":14.62028798,"ECCENTRICITY":0.0001276,"INCLINATION":98.4213,"RA_OF_ASC_NODE":59.2642,"ARG_OF_PERICENTER":116.7022,"MEAN_ANOMALY":317.3309,"EPHEMERIS_TYPE":0,"CLASSIFICATION_TYPE":"U","NORAD_CAT_ID":27424,"ELEMENT_SET_NO":999,"REV_AT_EPOCH":27206,"BSTAR":0.00022518,"MEAN_MOTION_DOT":1.08e-5,"MEAN_MOTION_DDOT":0},{"OBJECT_NAME":"IRS-P6 (RESOURCESAT-1)","OBJECT_ID":"2003-046A","EPOCH":"2026-04-01T12:57:14.368032","MEAN_MOTION":14.36131455,"ECCENTRICITY":0.0063468,"INCLINATION":98.2003,"RA_OF_ASC_NODE":131.7774,"ARG_OF_PERICENTER":211.3032,"MEAN_ANOMALY":310.8903,"EPHEMERIS_TYPE":0,"CLASSIFICATION_TYPE":"U","NORAD_CAT_ID":28051,"ELEMENT_SET_NO":999,"REV_AT_EPOCH":16952,"BSTAR":0.00014555,"MEAN_MOTION_DOT":3.93e-6,"MEAN_MOTION_DDOT":0},{"OBJECT_NAME":"SHIYAN-1 (SY-1)","OBJECT_ID":"2004-012A","EPOCH":"2026-04-01T11:24:37.928736","MEAN_MOTION":15.31751832,"ECCENTRICITY":0.0004474,"INCLINATION":97.8735,"RA_OF_ASC_NODE":164.6717,"ARG_OF_PERICENTER":291.1898,"MEAN_ANOMALY":68.8864,"EPHEMERIS_TYPE":0,"CLASSIFICATION_TYPE":"U","NORAD_CAT_ID":28220,"ELEMENT_SET_NO":999,"REV_AT_EPOCH":19934,"BSTAR":0.00048463,"MEAN_MOTION_DOT":0.0001479,"MEAN_MOTION_DDOT":0},{"OBJECT_NAME":"AURA","OBJECT_ID":"2004-026A","EPOCH":"2026-04-01T12:00:33.019488","MEAN_MOTION":14.61201326,"ECCENTRICITY":0.0001373,"INCLINATION":98.3348,"RA_OF_ASC_NODE":47.3574,"ARG_OF_PERICENTER":94.3186,"MEAN_ANOMALY":265.8172,"EPHEMERIS_TYPE":0,"CLASSIFICATION_TYPE":"U","NORAD_CAT_ID":28376,"ELEMENT_SET_NO":999,"REV_AT_EPOCH":15501,"BSTAR":0.0002549,"MEAN_MOTION_DOT":1.208e-5,"MEAN_MOTION_DDOT":0},{"OBJECT_NAME":"IRS-P5 (CARTOSAT-1)","OBJECT_ID":"2005-017A","EPOCH":"2026-04-01T12:03:15.485184","MEAN_MOTION":14.9084457,"ECCENTRICITY":0.0001127,"INCLINATION":97.5383,"RA_OF_ASC_NODE":118.0301,"ARG_OF_PERICENTER":50.7581,"MEAN_ANOMALY":309.3738,"EPHEMERIS_TYPE":0,"CLASSIFICATION_TYPE":"U","NORAD_CAT_ID":28649,"ELEMENT_SET_NO":999,"REV_AT_EPOCH":13239,"BSTAR":0.00019136,"MEAN_MOTION_DOT":1.832e-5,"MEAN_MOTION_DDOT":0},{"OBJECT_NAME":"SINAH 1","OBJECT_ID":"2005-043D","EPOCH":"2026-04-01T12:18:26.296704","MEAN_MOTION":14.64099225,"ECCENTRICITY":0.0015121,"INCLINATION":98.2728,"RA_OF_ASC_NODE":225.4369,"ARG_OF_PERICENTER":152.3735,"MEAN_ANOMALY":207.8273,"EPHEMERIS_TYPE":0,"CLASSIFICATION_TYPE":"U","NORAD_CAT_ID":28893,"ELEMENT_SET_NO":999,"REV_AT_EPOCH":8930,"BSTAR":0.00012231,"MEAN_MOTION_DOT":5.94e-6,"MEAN_MOTION_DDOT":0},{"OBJECT_NAME":"RESURS-DK 1","OBJECT_ID":"2006-021A","EPOCH":"2026-04-01T09:55:02.447328","MEAN_MOTION":15.12882777,"ECCENTRICITY":0.0001629,"INCLINATION":69.9337,"RA_OF_ASC_NODE":178.2419,"ARG_OF_PERICENTER":43.1774,"MEAN_ANOMALY":316.9519,"EPHEMERIS_TYPE":0,"CLASSIFICATION_TYPE":"U","NORAD_CAT_ID":29228,"ELEMENT_SET_NO":999,"REV_AT_EPOCH":9096,"BSTAR":0.00013004,"MEAN_MOTION_DOT":2.186e-5,"MEAN_MOTION_DDOT":0},{"OBJECT_NAME":"ARIRANG-2 (KOMPSAT-2)","OBJECT_ID":"2006-031A","EPOCH":"2026-04-01T12:12:00.372096","MEAN_MOTION":14.64609206,"ECCENTRICITY":0.0013591,"INCLINATION":97.8306,"RA_OF_ASC_NODE":279.6609,"ARG_OF_PERICENTER":321.6318,"MEAN_ANOMALY":122.3985,"EPHEMERIS_TYPE":0,"CLASSIFICATION_TYPE":"U","NORAD_CAT_ID":29268,"ELEMENT_SET_NO":999,"REV_AT_EPOCH":5025,"BSTAR":0.00011059,"MEAN_MOTION_DOT":5.43e-6,"MEAN_MOTION_DDOT":0},{"OBJECT_NAME":"LAPAN-TUBSAT","OBJECT_ID":"2007-001A","EPOCH":"2026-04-01T13:18:16.784352","MEAN_MOTION":14.85867771,"ECCENTRICITY":0.0013629,"INCLINATION":98.1341,"RA_OF_ASC_NODE":89.0586,"ARG_OF_PERICENTER":76.479,"MEAN_ANOMALY":283.7942,"EPHEMERIS_TYPE":0,"CLASSIFICATION_TYPE":"U","NORAD_CAT_ID":29709,"ELEMENT_SET_NO":999,"REV_AT_EPOCH":3977,"BSTAR":0.00016591,"MEAN_MOTION_DOT":1.39e-5,"MEAN_MOTION_DDOT":0},{"OBJECT_NAME":"HAIYANG-1B","OBJECT_ID":"2007-010A","EPOCH":"2026-03-31T22:51:37.408320","MEAN_MOTION":14.31006779,"ECCENTRICITY":0.00147084,"INCLINATION":98.3456,"RA_OF_ASC_NODE":75.8123,"ARG_OF_PERICENTER":71.8439,"MEAN_ANOMALY":288.4345,"EPHEMERIS_TYPE":0,"CLASSIFICATION_TYPE":"U","NORAD_CAT_ID":31113,"ELEMENT_SET_NO":999,"REV_AT_EPOCH":98958,"BSTAR":7.4566829e-5,"MEAN_MOTION_DOT":1.55e-6,"MEAN_MOTION_DDOT":0},{"OBJECT_NAME":"COSMO-SKYMED 1","OBJECT_ID":"2007-023A","EPOCH":"2026-04-01T11:07:03.370944","MEAN_MOTION":14.96701068,"ECCENTRICITY":0.0001286,"INCLINATION":97.8867,"RA_OF_ASC_NODE":282.6814,"ARG_OF_PERICENTER":103.2934,"MEAN_ANOMALY":256.843,"EPHEMERIS_TYPE":0,"CLASSIFICATION_TYPE":"U","NORAD_CAT_ID":31598,"ELEMENT_SET_NO":999,"REV_AT_EPOCH":1831,"BSTAR":0.00031697,"MEAN_MOTION_DOT":3.56e-5,"MEAN_MOTION_DDOT":0}]
