SCD 1                   
1 22490U 93009B   26091.02567248  .00000638  00000+0  12374-3 0  9996
2 22490  24.9705 323.9917 0042028  41.6065  99.7226 14.46082841749933
TECHSAT 1B (GO-32)      
1 25397U 98043D   26091.42887264  .00000082  00000+0  55499-4 0  9994
2 25397  99.0050  82.2624 0002338  83.0060 277.1384 14.24412226440400
SCD 2                   
1 25504U 98060A   26090.99863840  .00000501  00000+0  88993-4 0  9999
2 25504  24.9942 188.1702 0016918  28.0909 132.9763 14.45494727449148
DLR-TUBSAT              
1 25757U 99029B   26091.41125819  .00000134  00000+0  44732-4 0  9995
2 25757  98.6683  84.3979 0013415 220.1564 139.8640 14.52405782422100
TERRA                   
1 25994U 99068A   26091.45192313  .00000472  00000+0  10511-3 0  9990
2 25994  97.9545 144.0117 0003634 104.6473 313.0502 14.61038626398404
MAROC-TUBSAT            
1 27004U 01056D   26091.47305877 -.00000024  00000+0  26297-4 0  9990
2 27004  99.8038 266.8940 0019557 341.5670  42.7327 13.70259140215689
AQUA                    
1 27424U 02022A   26091.47744469  .00001080  00000+0  22518-3 0  9997
2 27424  98.4213  59.2642 0001276 116.7022 317.3309 14.62028798272061
IRS-P6 (RESOURCESAT-1)  
1 28051U 03046A   26091.53974963  .00000393  00000+0  14555-3 0  9990
2 28051  98.2003 131.7774 0063468 211.3032 310.8903 14.36131455169529
SHIYAN-1 (SY-1)         
1 28220U 04012A   26091.47543899  .00014790  00000+0  48463-3 0  9996
2 28220  97.8735 164.6717 0004474 291.1898  68.8864 15.31751832199346
AURA                    
1 28376U 04026A   26091.50038217  .00001208  00000+0  25490-3 0  9995
2 28376  98.3348  47.3574 0001373  94.3186 265.8172 14.61201326155017
IRS-P5 (CARTOSAT-1)     
1 28649U 05017A   26091.50226256  .00001832  00000+0  19136-3 0  9994
2 28649  97.5383 118.0301 0001127  50.7581 309.3738 14.90844570132390
SINAH 1                 
1 28893U 05043D   26091.51280436  .00000594  00000+0  12231-3 0  9998
2 28893  98.2728 225.4369 0015121 152.3735 207.8273 14.64099225 89306
RESURS-DK 1             
1 29228U 06021A   26091.41322277  .00002186  00000+0  13004-3 0  9995
2 29228  69.9337 178.2419 0001629  43.1774 316.9519 15.12882777 90964
ARIRANG-2 (KOMPSAT-2)   
1 29268U 06031A   26091.50833764  .00000543  00000+0  11059-3 0  9991
2 29268  97.8306 279.6609 0013591 321.6318 122.3985 14.64609206 50254
LAPAN-TUBSAT            
1 29709U 07001A   26091.55436093  .00001390  00000+0  16591-3 0  9995
2 29709  98.1341  89.0586 0013629  76.4790 283.7942 14.85867771 39770
HAIYANG-1B              
1 31113U 07010A   26090.95251630  .00000155  00000+0  74567-4 0  9998
2 31113  98.3456  75.8123 0014708  71.8439 288.4345 14.31006779989585
COSMO-SKYMED 1          
1 31598U 07023A   26091.46323346  .00003560  00000+0  31697-3 0  9999
2 31598  97.8867 282.6814 0001286 103.2934 256.8430 14.96701068 18316
